{"type":"FeatureCollection","features":[{"type":"Feature","properties":{"nombre":"SANTA FE","codigo":"3"},"geometry":{"type":"Polygon","coordinates":[[[-74.06856265714661,4.627917706598259],[-74.06516516840112,4.625058274355368],[-74.04937621830908,4.621624386311209],[-74.04749422311173,4.61619139639002],[-74.04358056230625,4.612567037675356],[-74.03973223740209,4.613042699362698],[-74.03586698473467,4.617544562497526],[-74.0315382995948,4.617119262324153],[-74.03238474289927,4.61552253071095],[-74.02809027856512,4.617901704685091],[-74.021649485465,4.6137987466399],[-74.01786571340276,4.614471188401963],[-74.01320221110578,4.618639301940898],[-74.00782161488515,4.615605203142958],[-74.00367045991392,4.616518167800423],[-73.99445712880463,4.614249524749962],[-73.99661388264914,4.606263448902159],[-73.99373986197332,4.600524034705359],[-73.9992143329927,4.592639528918159],[-74.00281969964244,4.592169824689807],[-74.00159682036404,4.589219317298016],[-74.00609176220095,4.57861733681582],[-74.00444555424376,4.573781102130151],[-74.00662460389675,4.559453805579588],[-74.0181040056817,4.560332254769339],[-74.02400158579336,4.555751886826106],[-74.02900209004207,4.558300135091705],[-74.0324871223188,4.567457773645508],[-74.03166724438016,4.570644926732698],[-74.03369925132698,4.572474985557212],[-74.03614077860327,4.571160746402882],[-74.04894849347068,4.573540844957986],[-74.06621247795641,4.583596786824269],[-74.06999779376318,4.576968624232433],[-74.07402813712984,4.576267392361757],[-74.0807862442497,4.585822338706408],[-74.08900489538924,4.591819546856954],[-74.07607865040768,4.609080465018788],[-74.06989209005435,4.62108190879338],[-74.06856265714661,4.627917706598259]],[[-74.06620872604691,4.603171742142362],[-74.07106740717845,4.600609332756412],[-74.07669834486941,4.602111297512909],[-74.0814446345091,4.594588258803396],[-74.08062909358608,4.591689827834182],[-74.07278295768295,4.588988739611024],[-74.07057911784688,4.591456559665482],[-74.06832146394011,4.589936038596371],[-74.06829015345083,4.593576144821158],[-74.06504478876313,4.599056393047367],[-74.05926130618113,4.601382840721067],[-74.06620872604691,4.603171742142362]]]}},{"type":"Feature","properties":{"nombre":"PUENTE ARANDA","codigo":"16"},"geometry":{"type":"Polygon","coordinates":[[[-74.11829863986144,4.637411585408281],[-74.11044521609142,4.645137207537798],[-74.0914515037718,4.625717199586218],[-74.08319894686025,4.624698289489915],[-74.09912023905676,4.605019922770873],[-74.10707300586832,4.598243988543956],[-74.12214290737873,4.593562245668347],[-74.13776618421498,4.594885110500995],[-74.12926539915178,4.608854530754582],[-74.11829863986144,4.637411585408281]]]}},{"type":"Feature","properties":{"nombre":"CIUDAD BOLIVAR","codigo":"19"},"geometry":{"type":"Polygon","coordinates":[[[-74.15216009957933,4.599758614797869],[-74.14969520997248,4.595711464305195],[-74.15177507140052,4.596398968378737],[-74.15418739743902,4.592856341288131],[-74.15138850178279,4.591400206336107],[-74.15695650505889,4.58870354075704],[-74.15306973911095,4.586379134398858],[-74.15264790119546,4.588696557593431],[-74.15049479713873,4.587985612357742],[-74.1521550571994,4.585407671545977],[-74.15111427029815,4.582574922657381],[-74.14721585983129,4.581947290684691],[-74.1493143359009,4.581454088773992],[-74.14999024256966,4.578326785286127],[-74.1470581261171,4.576494224836135],[-74.14744732467157,4.573743682712638],[-74.14650857865482,4.574795290203376],[-74.14483950549223,4.573010682214116],[-74.1426175556272,4.577316764384327],[-74.14096114649416,4.576074161556979],[-74.1431954763529,4.572617231914233],[-74.14046045533368,4.570469038921982],[-74.1417097079743,4.568845485756203],[-74.14044901249358,4.564958416610976],[-74.13387728481443,4.560712534018125],[-74.13525832220489,4.557141268554635],[-74.13319105205034,4.55621855057652],[-74.1322439386563,4.549917790781372],[-74.12709757459912,4.549616140703111],[-74.12536366760641,4.547505708900104],[-74.12998438264043,4.546175374464386],[-74.12490665607712,4.544215600322658],[-74.12306578878918,4.532337507039389],[-74.12321327550325,4.52745905541088],[-74.12900234370882,4.524426464844941],[-74.12561030432913,4.520161511123786],[-74.12673732608411,4.506211804055945],[-74.12846810482432,4.504572878559012],[-74.12684511499288,4.501319849141552],[-74.12273896233397,4.499698860459841],[-74.12134919498993,4.49299825000233],[-74.12312109474946,4.491505504333802],[-74.12042294216228,4.490887368537438],[-74.12452821923155,4.47911345100471],[-74.1284185628195,4.47529097446058],[-74.1303125208133,4.476370672175102],[-74.13826053018299,4.465818779550995],[-74.13951190122943,4.458007455505884],[-74.14424010940083,4.44827653678099],[-74.14258376363337,4.434020396427829],[-74.14504413105377,4.415148196827368],[-74.14331057766272,4.408269244213584],[-74.1442691654616,4.40256387759273],[-74.1411295841953,4.392087742309166],[-74.14272377767031,4.38776718792045],[-74.14761515434178,4.386923969103401],[-74.15859132525019,4.390162146150798],[-74.1626926862912,4.389605548177592],[-74.1678112720188,4.385188135275004],[-74.17727113049894,4.388561008748415],[-74.18154627092555,4.383661868416773],[-74.19508979760734,4.387137356997106],[-74.21092452582833,4.386906729906546],[-74.21296023892558,4.396163899841931],[-74.20777775919942,4.405263833941226],[-74.20342170665357,4.419375454932474],[-74.19884413654148,4.42641364184079],[-74.1942391849588,4.426767988085559],[-74.19474569104464,4.434774888430033],[-74.19051496027436,4.44721401965351],[-74.18621704695545,4.452728684424619],[-74.18645002971563,4.458450410794405],[-74.18308729487897,4.466782989428665],[-74.18257686756365,4.480007441509971],[-74.17803311388897,4.48640974338309],[-74.17877608631058,4.496511266108543],[-74.18152821713711,4.504104432770422],[-74.1733937664144,4.507847594736264],[-74.17617497988562,4.512512527113841],[-74.18222518202651,4.512962116733545],[-74.18324539851078,4.52746639145389],[-74.18810950008624,4.532805980682725],[-74.17322119022776,4.541053448276415],[-74.17637977282557,4.545790499659348],[-74.17376005041363,4.551589227409935],[-74.17706344970625,4.553866805049913],[-74.17638474440737,4.560490145701227],[-74.17851733360668,4.570167832022588],[-74.17542061726793,4.571797481937363],[-74.17501661492278,4.575014192311039],[-74.17963648425759,4.577553769255917],[-74.18379853429701,4.59640344218835],[-74.16331119845734,4.59571712528896],[-74.15216009957933,4.599758614797869]]]}},{"type":"Feature","properties":{"nombre":"BARRIOS UNIDOS","codigo":"12"},"geometry":{"type":"Polygon","coordinates":[[[-74.05724703178382,4.686836295669596],[-74.0646347402983,4.64964736227104],[-74.08482892657713,4.654172240274877],[-74.09371541655747,4.666065226557301],[-74.08517844983896,4.678943195320105],[-74.07115508517757,4.689355413991929],[-74.05724703178382,4.686836295669596]]]}},{"type":"Feature","properties":{"nombre":"SUBA","codigo":"11"},"geometry":{"type":"Polygon","coordinates":[[[-74.04245386600061,4.830660965527887],[-74.04078078951966,4.826496146326932],[-74.03449735485077,4.825469347996431],[-74.05724703178382,4.686836295669596],[-74.06908715863885,4.68965939996953],[-74.07732779164743,4.685359689279],[-74.08094843398867,4.693143740962809],[-74.08836863075298,4.698530355483497],[-74.0879885785005,4.705654106993314],[-74.09087251704379,4.710497396124266],[-74.09335076483134,4.711359257328905],[-74.09668445653949,4.717380016286955],[-74.09984285563746,4.717998338342548],[-74.1040917929175,4.725823770737697],[-74.10868487390381,4.727426958859452],[-74.12069025960969,4.739436805868216],[-74.12612961866805,4.740017823327791],[-74.12880230860613,4.737349772142097],[-74.13186230025151,4.741092744830182],[-74.1300669526831,4.745918481081437],[-74.12557179485874,4.747063610297778],[-74.12725405304664,4.750637597165389],[-74.12428104392617,4.750036358166699],[-74.12268049070272,4.747264888180378],[-74.12523831695404,4.753973162345694],[-74.12040967009148,4.75419586178386],[-74.12123917136086,4.759818517185841],[-74.1168264282679,4.761786483642777],[-74.11570192417939,4.767989251476267],[-74.11829962719466,4.766779552870514],[-74.11469025918143,4.770565796073849],[-74.11434462694062,4.771982705748165],[-74.11660798571798,4.772040772001565],[-74.11388365561211,4.778118463747513],[-74.11718563815116,4.777503420915669],[-74.11434507226441,4.780061063193409],[-74.11719826659014,4.780696961246681],[-74.11436684454704,4.782245441513872],[-74.11475150143882,4.785638773273966],[-74.11225144960825,4.784474621116293],[-74.11435405823494,4.786889536642854],[-74.11294971698824,4.790229431498537],[-74.1100409311634,4.790338993082123],[-74.11238793877027,4.789433747982678],[-74.11162287698029,4.787205032002501],[-74.10804873899234,4.788846908749017],[-74.10524843763535,4.79687399701421],[-74.10317490334843,4.797417388370186],[-74.1027587581362,4.79524536526651],[-74.10070957127743,4.799114083309229],[-74.0960689405038,4.799238815418954],[-74.09350209304145,4.790890691991655],[-74.08717518174002,4.796213422877684],[-74.0915712768407,4.796685691549178],[-74.08859673481662,4.798171227643464],[-74.08899804885905,4.801386857236722],[-74.08710121550925,4.801700523960354],[-74.08847622588516,4.803308678319143],[-74.07994858540147,4.808509819798926],[-74.08468289632205,4.812117581174614],[-74.08316727401379,4.814333890570728],[-74.0871201997268,4.816016791167652],[-74.0865650753182,4.821029003404493],[-74.08342392751497,4.822142253100343],[-74.0820227397955,4.816377403073252],[-74.0789522201347,4.821113997553773],[-74.08655443556543,4.832186166627514],[-74.07562350389622,4.836779102994078],[-74.07171493504782,4.834160017853201],[-74.07057065416053,4.828345461446397],[-74.06696806407444,4.828064069401439],[-74.06579862047951,4.835462672818557],[-74.06449076079886,4.830213590639629],[-74.06278899077503,4.835505665795484],[-74.06065834899057,4.82743770990174],[-74.0560185977552,4.828853898357909],[-74.05329629603605,4.833085208774462],[-74.04901239842405,4.830641575863733],[-74.0499633995996,4.835167387937583],[-74.04756257967802,4.830570843771023],[-74.04553620901243,4.830526321325504],[-74.04432288573094,4.833027872783392],[-74.04245386600061,4.830660965527887]]]}},{"type":"Feature","properties":{"nombre":"ANTONIO NARIÑO","codigo":"15"},"geometry":{"type":"Polygon","coordinates":[[[-74.13075446257028,4.593353346625467],[-74.12090239639029,4.593784475153599],[-74.10707300586832,4.598243988543956],[-74.1032044733019,4.594661256048594],[-74.09071605090178,4.592532263595674],[-74.08493086803898,4.589319823289904],[-74.09458245904118,4.575796995004464],[-74.10266081382998,4.581372498585178],[-74.10888231089875,4.589228359691942],[-74.1168632111491,4.588447154654967],[-74.13075446257028,4.593353346625467]]]}},{"type":"Feature","properties":{"nombre":"CANDELARIA","codigo":"17"},"geometry":{"type":"Polygon","coordinates":[[[-74.06620872604691,4.603171742142362],[-74.05926130618113,4.601382840721067],[-74.06504478876313,4.599056393047367],[-74.06829015345083,4.593576144821158],[-74.06832146394011,4.589936038596371],[-74.07057911784688,4.591456559665482],[-74.07278295768295,4.588988739611024],[-74.08062909358608,4.591689827834182],[-74.0814446345091,4.594588258803396],[-74.07669834486941,4.602111297512909],[-74.07106740717845,4.600609332756412],[-74.06620872604691,4.603171742142362]]]}},{"type":"Feature","properties":{"nombre":"ENGATIVA","codigo":"10"},"geometry":{"type":"Polygon","coordinates":[[[-74.12737994511497,4.737305027626455],[-74.12612961866805,4.740017823327791],[-74.12069025960969,4.739436805868216],[-74.10868487390381,4.727426958859452],[-74.1040917929175,4.725823770737697],[-74.09984285563746,4.717998338342548],[-74.09668445653949,4.717380016286955],[-74.09335076483134,4.711359257328905],[-74.09087251704379,4.710497396124266],[-74.0879885785005,4.705654106993314],[-74.08836863075298,4.698530355483497],[-74.08094843398867,4.693143740962809],[-74.07732779164743,4.685359689279],[-74.08517844983896,4.678943195320105],[-74.10341575905818,4.653507285276815],[-74.12465090304727,4.684803915170933],[-74.11840027384633,4.688651399885239],[-74.12037818235116,4.69222116100986],[-74.16034421226011,4.720234075201106],[-74.15793869462068,4.725531479281835],[-74.15653403283301,4.723470585189287],[-74.15110338334414,4.722731707096154],[-74.14857200011129,4.725889172339884],[-74.13739427834956,4.730725911460548],[-74.13557163989825,4.728293269479361],[-74.1305825491648,4.730867105922911],[-74.12860766873911,4.726743428825574],[-74.12603100625807,4.729661624013173],[-74.12815496294466,4.734002896437588],[-74.12737994511497,4.737305027626455]]]}},{"type":"Feature","properties":{"nombre":"FONTIBON","codigo":"9"},"geometry":{"type":"Polygon","coordinates":[[[-74.15546957967182,4.717982202234134],[-74.12037818235116,4.69222116100986],[-74.11840027384633,4.688651399885239],[-74.12465090304727,4.684803915170933],[-74.10341575905818,4.653507285276815],[-74.11829863986144,4.637411585408281],[-74.12381232476835,4.640868655958236],[-74.12917467041918,4.648526977987784],[-74.13231675331714,4.648894591358249],[-74.14094493115758,4.662840280774692],[-74.14480488127168,4.661227502337709],[-74.15456481093386,4.66426636280159],[-74.15707962539254,4.661530151323389],[-74.16105681809805,4.664726595502597],[-74.16068314323117,4.667118621145917],[-74.17017196971678,4.669260627062353],[-74.16933291350414,4.672136911777442],[-74.16610689296003,4.673267451717081],[-74.16445041119849,4.671114373625723],[-74.16241761240514,4.675288281925178],[-74.1572599710349,4.677762427342969],[-74.15925531569029,4.682842767590584],[-74.16224822157292,4.681010798558418],[-74.16023414556888,4.67831010471179],[-74.16455102494517,4.675673871746268],[-74.16588111601493,4.678177869906794],[-74.16950695612188,4.675356672039583],[-74.17100101825248,4.677176728279936],[-74.17151123435012,4.674335614608954],[-74.17498782201702,4.676818473711759],[-74.17368686012405,4.682614700082805],[-74.16763814224703,4.688018726719201],[-74.17237243641779,4.694372172791603],[-74.16922122008755,4.700858055522755],[-74.17452951487887,4.700605169960125],[-74.1769973291725,4.702784050627634],[-74.15608815746465,4.708048662581715],[-74.15546957967182,4.717982202234134]]]}},{"type":"Feature","properties":{"nombre":"SAN CRISTOBAL","codigo":"4"},"geometry":{"type":"Polygon","coordinates":[[[-74.06563188406581,4.583469528390075],[-74.04894849347068,4.573540844957986],[-74.03614077860327,4.571160746402882],[-74.03413672726168,4.572634643799191],[-74.03166724438016,4.570644926732698],[-74.03251505272421,4.567598277029205],[-74.02920502348168,4.561595554271872],[-74.02879716802236,4.550087039471426],[-74.0316264374624,4.540024405899969],[-74.03564088700746,4.535582171383886],[-74.03874648182203,4.527343899774854],[-74.04325237953692,4.510133363010986],[-74.05062601077995,4.51141934816928],[-74.05598738517827,4.508344604059458],[-74.0614474370227,4.51177449471007],[-74.06847783225143,4.509978415127488],[-74.07192909548989,4.515967404468807],[-74.06856875984859,4.528594621217324],[-74.07383654141888,4.529274953131833],[-74.07869961944526,4.527012623869096],[-74.07651524431154,4.531847443007978],[-74.07773913267584,4.532398166091284],[-74.07929051531586,4.530059053087913],[-74.07968950549208,4.532078898553528],[-74.08172543749495,4.53023232894216],[-74.08017384714162,4.526546041845874],[-74.0828493610492,4.527766568401415],[-74.0878203593844,4.520647733651129],[-74.08189181817829,4.517817601021952],[-74.09107069487841,4.519684044490033],[-74.08955516283808,4.517095688292035],[-74.09491345456112,4.517272346135779],[-74.09342482937889,4.523375814246366],[-74.09577664338751,4.53799843462714],[-74.10317934684286,4.546926963046681],[-74.10176154265858,4.555905400927616],[-74.10627167567175,4.563896817885152],[-74.09458245904118,4.575796995004464],[-74.08493086803898,4.589319823289904],[-74.07402813712984,4.576267392361757],[-74.06999779376318,4.576968624232433],[-74.06563188406581,4.583469528390075]]]}},{"type":"Feature","properties":{"nombre":"TEUSAQUILLO","codigo":"13"},"geometry":{"type":"Polygon","coordinates":[[[-74.09371541655747,4.666065226557301],[-74.0836132085083,4.653346281342455],[-74.0646347402983,4.64964736227104],[-74.06971171216384,4.621638520735639],[-74.0728291167301,4.615417331944809],[-74.07882820891005,4.623891494071502],[-74.0914515037718,4.625717199586218],[-74.11044521609142,4.645137207537798],[-74.09371541655747,4.666065226557301]]]}},{"type":"Feature","properties":{"nombre":"USAQUEN","codigo":"1"},"geometry":{"type":"Polygon","coordinates":[[[-74.05724703178382,4.686836295669596],[-74.03449735485077,4.825469347996431],[-74.0237431773774,4.821880932007179],[-74.0055632708313,4.821681180745903],[-74.00369638463684,4.818562252452169],[-74.00454165179659,4.810550007349038],[-73.99903998045302,4.804644013675978],[-74.00531779776493,4.798472203129226],[-74.00828076028183,4.796805988745011],[-74.01255677208896,4.797469298853671],[-74.01399691994823,4.795259320222573],[-74.01591214975589,4.787842386414876],[-74.01547915735608,4.775794467752217],[-74.01910385905788,4.763924747833991],[-74.00901800869494,4.754484786070488],[-74.00704825216116,4.716378374153162],[-74.00979683193198,4.715233554113502],[-74.01430057589339,4.697319746808494],[-74.01113911953865,4.69354599781285],[-74.01120498784839,4.68386577594205],[-74.00426850879393,4.679617847653875],[-74.00247442572872,4.675796682891393],[-74.00342980440143,4.671295040221972],[-74.01088781932725,4.663578601955436],[-74.01196958318117,4.66611451294988],[-74.01451623703817,4.666528483134241],[-74.01360566195129,4.669502148208239],[-74.01897472556506,4.67384965773666],[-74.02394378186216,4.675839898051714],[-74.03050557767634,4.675580496258122],[-74.04836138577335,4.684975293711252],[-74.05724703178382,4.686836295669596]]]}},{"type":"Feature","properties":{"nombre":"CHAPINERO","codigo":"2"},"geometry":{"type":"Polygon","coordinates":[[[-74.05724703178382,4.686836295669596],[-74.04836138577335,4.684975293711252],[-74.03050557767634,4.675580496258122],[-74.021653394122,4.675030070575635],[-74.01367624978987,4.669581268567476],[-74.01451623703817,4.666528483134241],[-74.01196958318117,4.66611451294988],[-74.01088781932725,4.663578601955436],[-74.01949648611806,4.661447993171489],[-74.02472003328079,4.662121277273734],[-74.02557817206876,4.656563310221065],[-74.02897425824128,4.653628147807448],[-74.0279536926303,4.648924279495149],[-74.03149876612397,4.644966050320757],[-74.00933971635115,4.638805237509693],[-74.01043505822669,4.630426322534539],[-74.00980913889842,4.626713952514324],[-74.00727329718087,4.62553265546499],[-73.98698126166252,4.630525568814],[-73.98695980123854,4.627493471523143],[-73.99195386995586,4.621483405976649],[-73.99209285247487,4.616262383855624],[-73.99445711979706,4.614249520228292],[-74.00367045991392,4.616518167800423],[-74.00767283478945,4.61558758684511],[-74.01343565867998,4.618631297977664],[-74.01786571340276,4.614471188401963],[-74.02177461931154,4.61379453185349],[-74.02809027856512,4.617901704685091],[-74.03238474289927,4.61552253071095],[-74.0315382995948,4.617119262324153],[-74.03586698473467,4.617544562497526],[-74.03973223740209,4.613042699362698],[-74.04332220894335,4.612520106946231],[-74.04749422311173,4.61619139639002],[-74.04937621830908,4.621624386311209],[-74.06510175858297,4.625037505180781],[-74.06745040750421,4.627352616428454],[-74.05724703178382,4.686836295669596]]]}},{"type":"Feature","properties":{"nombre":"USME","codigo":"5"},"geometry":{"type":"Polygon","coordinates":[[[-74.12608585713512,4.544822994099091],[-74.12114808136124,4.545429556786636],[-74.11632893860667,4.540643764519801],[-74.11256749761662,4.540377107595992],[-74.1123824146687,4.541682809944612],[-74.09814826482203,4.534945818907065],[-74.10371321956795,4.545517969904504],[-74.10045471437094,4.54520693699269],[-74.09830605411506,4.539378920531362],[-74.09577664338751,4.53799843462714],[-74.09342482937889,4.523375814246366],[-74.09446492970694,4.516945999326103],[-74.08955516283808,4.517095688292035],[-74.09107069487841,4.519684044490033],[-74.08189181817829,4.517817601021952],[-74.0878203593844,4.520647733651129],[-74.0828493610492,4.527766568401415],[-74.08017384714162,4.526546041845874],[-74.08187531882102,4.529604665118029],[-74.07968950549208,4.532078898553528],[-74.07933835863194,4.530040246324476],[-74.07837590634367,4.532270569668469],[-74.07651346902668,4.531902534111628],[-74.07869961944526,4.527012623869096],[-74.0697289151829,4.529423613971175],[-74.06856342041695,4.528020993455374],[-74.07191009338754,4.518347208048318],[-74.07050073882576,4.511625419156368],[-74.06837699679286,4.509954119625915],[-74.0614474370227,4.51177449471007],[-74.05598738517827,4.508344604059458],[-74.05921034132462,4.497112786943188],[-74.06509774208891,4.4864906804321],[-74.0753374905446,4.484577736136512],[-74.07508241261199,4.469382136378814],[-74.076884726866,4.461796289487506],[-74.0796170808956,4.461710331288109],[-74.08139867169172,4.458159973001355],[-74.08458335764274,4.456746412543041],[-74.09006663287961,4.459119232845402],[-74.09321758107494,4.456027445572606],[-74.10327917026892,4.452336376888991],[-74.11203771469675,4.435334331538206],[-74.11438926057899,4.413158632869195],[-74.11315202134723,4.409561470494865],[-74.1147164578658,4.406102582610357],[-74.1137747525715,4.386503225633291],[-74.11121868440726,4.385941278363945],[-74.10505266334694,4.37856835763704],[-74.09914125475835,4.378784176692409],[-74.09868050052944,4.37419079913196],[-74.09525825596587,4.369911319155019],[-74.09444982451058,4.364212378170941],[-74.09776119180145,4.357374862123669],[-74.09856341239731,4.345931784000682],[-74.10528164522101,4.336769955792437],[-74.10430151231037,4.332817806115775],[-74.10695678119198,4.325035026225791],[-74.11104593297071,4.323814027797296],[-74.1148047917606,4.313349335320307],[-74.12439849863362,4.306656295587837],[-74.13747838228853,4.304246518302604],[-74.16049117454418,4.283715772332688],[-74.18544658028102,4.281933435346705],[-74.19496551978024,4.290119656801243],[-74.20196094025003,4.282826497003025],[-74.20584488551826,4.269664100433219],[-74.21223633383245,4.273458162965819],[-74.2161931025608,4.273064911424865],[-74.21671666285937,4.276782137086005],[-74.22113714207933,4.282170228923148],[-74.21611994434626,4.286849251820973],[-74.21432155874929,4.303973177136879],[-74.21845356746927,4.327287240842932],[-74.22110148301924,4.364555712820351],[-74.21719835689,4.366989222058631],[-74.21219897541576,4.374250899752299],[-74.21421279471217,4.376370234589103],[-74.21078271983598,4.382079958097751],[-74.21092452582833,4.386906729906546],[-74.19508979760734,4.387137356997106],[-74.18154627092555,4.383661868416773],[-74.17665143554393,4.388645170471706],[-74.1678112720188,4.385188135275004],[-74.1626926862912,4.389605548177592],[-74.15859132525019,4.390162146150798],[-74.15121223884029,4.387227566843879],[-74.14272377767031,4.38776718792045],[-74.1411295841953,4.392087742309166],[-74.1442691654616,4.40256387759273],[-74.14331057766272,4.408269244213584],[-74.14504413105377,4.415148196827368],[-74.14258376363337,4.434020396427829],[-74.14424010940083,4.44827653678099],[-74.13951190122943,4.458007455505884],[-74.13826053018299,4.465818779550995],[-74.1303125208133,4.476370672175102],[-74.1284185628195,4.47529097446058],[-74.12452821923155,4.47911345100471],[-74.12042521221609,4.490803616533925],[-74.12312109474946,4.491505504333802],[-74.12134919498993,4.49299825000233],[-74.12273896233397,4.499698860459841],[-74.12684511499288,4.501319849141552],[-74.1284649746855,4.50454203111848],[-74.12673732608411,4.506211804055945],[-74.12561030432913,4.520161511123786],[-74.12900234370882,4.524426464844941],[-74.12321327550325,4.52745905541088],[-74.12309045177462,4.529202478073094],[-74.12608585713512,4.544822994099091]]]}},{"type":"Feature","properties":{"nombre":"SUMAPAZ","codigo":"20"},"geometry":{"type":"Polygon","coordinates":[[[-74.14302297116357,4.300050669290573],[-74.12439849863362,4.306656295587837],[-74.15263345125777,4.25470230167642],[-74.12354596035917,4.182276035342999],[-74.11052960892847,4.181313787655081],[-74.11758760352949,4.135446044698052],[-74.08968191711404,4.122568929753385],[-74.12917504658718,4.093175751181565],[-74.13280885969783,4.035309552382691],[-74.15027225962018,4.004779596049494],[-74.158906605411,4.017722772562688],[-74.2175269562058,4.010278078807757],[-74.26005687832439,3.948662375728049],[-74.25647771626386,3.928669089707254],[-74.27332420914271,3.925296417199204],[-74.29786957998748,3.881080650897176],[-74.31628215465395,3.880320743269916],[-74.29668579861435,3.820368679470355],[-74.3282842664726,3.828000515147831],[-74.39280866799014,3.770792299160973],[-74.3858255477766,3.754432021642033],[-74.40075044384339,3.73826538365542],[-74.43729320656755,3.731030355303846],[-74.44963720581049,3.750452474129567],[-74.39616671755923,3.824736251680017],[-74.3598219596012,3.91403955580752],[-74.35674879975812,3.970331375862314],[-74.37451161814963,3.986780678433182],[-74.33057369238718,4.130143325645813],[-74.2639492977728,4.091240490589065],[-74.24649045744627,4.102239518825062],[-74.24450100336027,4.194918461885782],[-74.20629206159907,4.241893716216152],[-74.20196094025003,4.282826497003025],[-74.16049117454418,4.283715772332688],[-74.14302297116357,4.300050669290573]]]}},{"type":"Feature","properties":{"nombre":"RAFAEL URIBE URIBE","codigo":"18"},"geometry":{"type":"Polygon","coordinates":[[[-74.12803073411438,4.592539093339278],[-74.1168632111491,4.588447154654967],[-74.10888231089875,4.589228359691942],[-74.10266081382998,4.581372498585178],[-74.09458245904118,4.575796995004464],[-74.10627167567175,4.563896817885152],[-74.10176154265858,4.555905400927616],[-74.10229740796107,4.545970307083757],[-74.10371321956795,4.545517969904504],[-74.09814826482203,4.534945818907065],[-74.1123824146687,4.541682809944612],[-74.11256749761662,4.540377107595992],[-74.11632893860667,4.540643764519801],[-74.12114808136124,4.545429556786636],[-74.12157273091833,4.556171378347792],[-74.12663298172517,4.566491780527781],[-74.12525579795528,4.569567334523114],[-74.13087511526277,4.585899685806639],[-74.12860974549139,4.586644791763069],[-74.12803073411438,4.592539093339278]]]}},{"type":"Feature","properties":{"nombre":"TUNJUELITO","codigo":"6"},"geometry":{"type":"Polygon","coordinates":[[[-74.13776618421498,4.594885110500995],[-74.128290446583,4.59265318755706],[-74.12860974549139,4.586644791763069],[-74.13087511526277,4.585899685806639],[-74.12525579795528,4.569567334523114],[-74.12663298172517,4.566491780527781],[-74.12142428123477,4.555305419133453],[-74.12114808136124,4.545429556786636],[-74.12386844105737,4.544489566727366],[-74.12997784258772,4.546037805628905],[-74.12536366760641,4.547505708900104],[-74.12709757459912,4.549616140703111],[-74.13196963363305,4.549550764923086],[-74.13319105205034,4.55621855057652],[-74.13525832220489,4.557141268554635],[-74.13387728481443,4.560712534018125],[-74.14044901249358,4.564958416610976],[-74.1417097079743,4.568845485756203],[-74.14046045533368,4.570469038921982],[-74.14324501871737,4.572827116764204],[-74.14096114649416,4.576074161556979],[-74.1426175556272,4.577316764384327],[-74.14483950549223,4.573010682214116],[-74.14650857865482,4.574795290203376],[-74.14744732467157,4.573743682712638],[-74.1470581261171,4.576494224836135],[-74.14999024256966,4.578326785286127],[-74.1493143359009,4.581454088773992],[-74.14721585983129,4.581947290684691],[-74.15111427029815,4.582574922657381],[-74.1521550571994,4.585407671545977],[-74.15049479713873,4.587985612357742],[-74.15264790119546,4.588696557593431],[-74.15306973911095,4.586379134398858],[-74.15695650505889,4.58870354075704],[-74.15138850178279,4.591400206336107],[-74.15418739743902,4.592856341288131],[-74.15226370252597,4.595686897214567],[-74.13776618421498,4.594885110500995]]]}},{"type":"Feature","properties":{"nombre":"LOS MARTIRES","codigo":"14"},"geometry":{"type":"Polygon","coordinates":[[[-74.0728291167301,4.615417331944809],[-74.08900489538924,4.591819546856954],[-74.1032044733019,4.594661256048594],[-74.10707300586832,4.598243988543956],[-74.09912023905676,4.605019922770873],[-74.08319894686025,4.624698289489915],[-74.07882820891005,4.623891494071502],[-74.0728291167301,4.615417331944809]]]}},{"type":"Feature","properties":{"nombre":"KENNEDY","codigo":"8"},"geometry":{"type":"Polygon","coordinates":[[[-74.15857216537688,4.662739189631076],[-74.15707962539254,4.661530151323389],[-74.15456481093386,4.66426636280159],[-74.15140097264839,4.664249058393002],[-74.14480488127168,4.661227502337709],[-74.14094493115758,4.662840280774692],[-74.13231675331714,4.648894591358249],[-74.12917467041918,4.648526977987784],[-74.12381232476835,4.640868655958236],[-74.11829863986144,4.637411585408281],[-74.12926539915178,4.608854530754582],[-74.13776618421498,4.594885110500995],[-74.15226370252597,4.595686897214567],[-74.14967022497721,4.595831802726939],[-74.15224054181817,4.600682902687532],[-74.16268504765317,4.606284841207995],[-74.16859405162896,4.604245138784986],[-74.17008049449862,4.600561308898173],[-74.17400869458281,4.600169965294072],[-74.17288927591773,4.603154717796441],[-74.17554028796974,4.603424128308876],[-74.17757230430472,4.600955298842956],[-74.1761125385824,4.603623403954239],[-74.17865515748318,4.605456917313676],[-74.17734675861801,4.60979124768608],[-74.18190361076827,4.614261239020524],[-74.17949848060987,4.616428192075111],[-74.18202587563165,4.614655439718044],[-74.18275222010605,4.617124384525749],[-74.18512028986086,4.615749718551563],[-74.18523458401394,4.618855053837387],[-74.18010445451438,4.618485776874286],[-74.17656066690935,4.62402003242284],[-74.18566586810864,4.64704641975005],[-74.17233638411386,4.657143539813108],[-74.16765389448359,4.656381714337586],[-74.16620746153632,4.659875043828969],[-74.16404047707468,4.658564629302123],[-74.162287906629,4.663366415683344],[-74.15857216537688,4.662739189631076]]]}},{"type":"Feature","properties":{"nombre":"BOSA","codigo":"7"},"geometry":{"type":"Polygon","coordinates":[[[-74.18566586810864,4.64704641975005],[-74.17656066690935,4.62402003242284],[-74.18010445451438,4.618485776874286],[-74.18523458401394,4.618855053837387],[-74.18503864645567,4.615674935658137],[-74.18275222010605,4.617124384525749],[-74.18202587563165,4.614655439718044],[-74.17949848060987,4.616428192075111],[-74.18190361076827,4.614261239020524],[-74.17729227769456,4.609619429169076],[-74.17865515748318,4.605456917313676],[-74.1761125385824,4.603623403954239],[-74.17775134769019,4.601072453731414],[-74.17554028796974,4.603424128308876],[-74.17288927591773,4.603154717796441],[-74.17400869458281,4.600169965294072],[-74.17008049449862,4.600561308898173],[-74.16859405162896,4.604245138784986],[-74.16314497257642,4.606342533359257],[-74.1569787510715,4.604082934575782],[-74.15216009957933,4.599758614797869],[-74.16562752917899,4.595657132599855],[-74.18394422900765,4.596388701995378],[-74.20406272040225,4.600768261121845],[-74.20426657805554,4.599441431602051],[-74.21841163322385,4.617852406094469],[-74.2217402285403,4.618921640112862],[-74.22066751528575,4.623065702767907],[-74.2235814192337,4.625471544112829],[-74.22242992512061,4.629117002149618],[-74.21629377239984,4.629705591040591],[-74.21750944399665,4.635073565431049],[-74.21469591517908,4.63726886595421],[-74.221294901621,4.644058791698246],[-74.21556228314799,4.644335386155573],[-74.21349314377929,4.64041117670039],[-74.2070178548493,4.640646544117738],[-74.20548583697008,4.642272224571744],[-74.20680902725385,4.646579247207963],[-74.20088626899884,4.64383673933227],[-74.20292463183864,4.646494559260447],[-74.1935541058653,4.655149354489002],[-74.1867917328497,4.651466310546878],[-74.1837095336541,4.652734776871531],[-74.18566586810864,4.64704641975005]]]}}]}